{
    "links": {
        "self": "http://www.neowsapp.com/rest/v1/neo/3645446?api_key=iIulBulltgU6a56xZRHN4H3l9WmuAYTsLGpBGhQ2"
    },
    "id": "3645446",
    "neo_reference_id": "3645446",
    "name": "(2013 PW14)",
    "designation": "2013 PW14",
    "nasa_jpl_url": "http://ssd.jpl.nasa.gov/sbdb.cgi?sstr=3645446",
    "absolute_magnitude_h": 23.3,
    "estimated_diameter": {
        "kilometers": {
            "estimated_diameter_min": 0.058150704,
            "estimated_diameter_max": 0.130028927
        },
        "meters": {
            "estimated_diameter_min": 58.1507039646,
            "estimated_diameter_max": 130.0289270043
        },
        "miles": {
            "estimated_diameter_min": 0.0361331611,
            "estimated_diameter_max": 0.0807962044
        },
        "feet": {
            "estimated_diameter_min": 190.7831555951,
            "estimated_diameter_max": 426.6041048727
        }
    },
    "is_potentially_hazardous_asteroid": false,
    "close_approach_data": [
        {
            "close_approach_date": "1994-09-28",
            "close_approach_date_full": "1994-Sep-28 05:31",
            "epoch_date_close_approach": 780730260000,
            "relative_velocity": {
                "kilometers_per_second": "13.3824341678",
                "kilometers_per_hour": "48176.763004129",
                "miles_per_hour": "29935.1669899822"
            },
            "miss_distance": {
                "astronomical": "0.4251193589",
                "lunar": "165.3714306121",
                "kilometers": "63596950.587205543",
                "miles": "39517312.6527527734"
            },
            "orbiting_body": "Earth"
        },
        {
            "close_approach_date": "2013-08-30",
            "close_approach_date_full": "2013-Aug-30 17:28",
            "epoch_date_close_approach": 1377883680000,
            "relative_velocity": {
                "kilometers_per_second": "6.2514794019",
                "kilometers_per_hour": "22505.3258467943",
                "miles_per_hour": "13983.9342740817"
            },
            "miss_distance": {
                "astronomical": "0.1267795123",
                "lunar": "49.3172302847",
                "kilometers": "18965944.999718801",
                "miles": "11784891.7501334138"
            },
            "orbiting_body": "Earth"
        },
        {
            "close_approach_date": "2032-08-03",
            "close_approach_date_full": "2032-Aug-03 09:25",
            "epoch_date_close_approach": 1975137900000,
            "relative_velocity": {
                "kilometers_per_second": "15.4663419993",
                "kilometers_per_hour": "55678.8311974206",
                "miles_per_hour": "34596.6604181973"
            },
            "miss_distance": {
                "astronomical": "0.4304588357",
                "lunar": "167.4484870873",
                "kilometers": "64395724.943399959",
                "miles": "40013648.0223150742"
            },
            "orbiting_body": "Earth"
        }
    ],
    "orbital_data": {
        "orbit_id": "16",
        "orbit_determination_date": "2017-04-06 08:45:12",
        "first_observation_date": "2013-08-08",
        "last_observation_date": "2013-09-24",
        "data_arc_in_days": 47,
        "observations_used": 49,
        "orbit_uncertainty": "6",
        "minimum_orbit_intersection": ".123487",
        "jupiter_tisserand_invariant": "3.538",
        "epoch_osculation": "2459000.5",
        "eccentricity": ".4775671690813172",
        "semi_major_axis": "2.151134266949161",
        "inclination": "7.969989568389729",
        "ascending_node_longitude": "143.6661712779579",
        "orbital_period": "1152.390593461454",
        "perihelion_distance": "1.123823164768436",
        "perihelion_argument": "201.7557664462229",
        "aphelion_distance": "3.178445369129886",
        "perihelion_time": "2458848.893108966484",
        "mean_anomaly": "47.36109534539641",
        "mean_motion": ".3123940806551209",
        "equinox": "J2000",
        "orbit_class": {
            "orbit_class_type": "AMO",
            "orbit_class_description": "Near-Earth asteroid orbits similar to that of 1221 Amor",
            "orbit_class_range": "1.017 AU < q (perihelion) < 1.3 AU"
        }
    },
    "is_sentry_object": false
}